NORAD_CAT_ID,OBJECT_NAME,OBJECT_TYPE,EPOCH,MEAN_MOTION,ECCENTRICITY,INCLINATION,RA_OF_ASC_NODE,ARG_OF_PERICENTER,MEAN_ANOMALY,BSTAR,MEAN_MOTION_DOT,MEAN_MOTION_DDOT,TLE_LINE0,TLE_LINE1,TLE_LINE2,SEMIMAJOR_AXIS,PERIOD,APOGEE,PERIGEE,DECAYED
55391.0,STARLINK-5077,PAYLOAD,2023-08-20 11:37:39,14.97523662,0.0003476,69.9981,253.5387,274.9893,85.0869,0.00015692,1.742e-05,0.0,0 STARLINK-5077,1 55391U 23014A   23232.48448996  .00001742  00000-0  15692-3 0  9997,2 55391  69.9981 253.5387 0003476 274.9893  85.0869 14.97523662 31513,6952.688,96.159,576.969,572.136,0.0
55391.0,STARLINK-5077,PAYLOAD,2023-08-21 10:04:15,14.97534547,0.0003655,69.9981,251.1849,275.3383,84.7358,7.5356e-05,7.89e-06,0.0,0 STARLINK-5077,1 55391U 23014A   23233.41962407  .00000789  00000-0  75356-4 0  9993,2 55391  69.9981 251.1849 0003655 275.3383  84.7358 14.97534547 31656,6952.654,96.158,577.06,571.978,0.0
55391.0,STARLINK-5077,PAYLOAD,2023-08-21 11:40:26,14.97548508,0.0003414,69.9981,251.0165,273.1417,86.9351,-0.00019247,-2.342e-05,0.0,0 STARLINK-5077,1 55391U 23014A   23233.48641643 -.00002342  00000-0 -19247-3 0  9991,2 55391  69.9981 251.0165 0003414 273.1417  86.9351 14.97548508 31663,6952.611,96.157,576.849,572.102,0.0
55391.0,STARLINK-5077,PAYLOAD,2023-08-22 02:06:07,14.97531098,0.0003035,69.9989,249.502,269.5833,90.4978,1.9863e-06,-6.9e-07,0.0,0 STARLINK-5077,1 55391U 23014A   23234.08758350 -.00000069  00000-0  19863-5 0  9991,2 55391  69.9989 249.5020 0003035 269.5833  90.4978 14.97531098 31754,6952.665,96.158,576.64,572.419,0.0
55391.0,STARLINK-5077,PAYLOAD,2023-08-22 10:07:03,14.97526507,0.0003263,69.9987,248.6611,277.4603,82.6184,-4.6477e-05,-6.35e-06,0.0,0 STARLINK-5077,1 55391U 23014A   23234.42156647 -.00000635  00000-0 -46477-4 0  9990,2 55391  69.9987 248.6611 0003263 277.4603  82.6184 14.97526507 31801,6952.679,96.159,576.812,572.275,0.0
55391.0,STARLINK-5077,PAYLOAD,2023-08-23 02:08:54,14.97533483,0.0003262,69.9983,246.9789,266.5574,93.5212,-7.5413e-05,-9.74e-06,0.0,0 STARLINK-5077,1 55391U 23014A   23235.08951799 -.00000974  00000-0 -75413-4 0  9992,2 55391  69.9983 246.9789 0003262 266.5574  93.5212 14.97533483 31904,6952.657,96.158,576.79,572.254,0.0
55391.0,STARLINK-5077,PAYLOAD,2023-08-24 10:12:38,14.97520976,0.0003394,69.998,243.6143,268.695,91.382,-3.1964e-05,-4.66e-06,0.0,0 STARLINK-5077,1 55391U 23014A   23236.42544070 -.00000466  00000-0 -31964-4 0  9990,2 55391  69.9980 243.6143 0003394 268.6950  91.3820 14.97520976 33047,6952.696,96.159,576.921,572.201,0.0
55391.0,STARLINK-5077,PAYLOAD,2023-08-25 10:15:25,14.97523395,0.0003455,69.9979,241.091,269.2038,90.8725,-7.6811e-06,-1.82e-06,0.0,0 STARLINK-5077,1 55391U 23014A   23237.42737792 -.00000182  00000-0 -76811-5 0  9992,2 55391  69.9979 241.0910 0003455 269.2038  90.8725 14.97523395 32259,6952.688,96.159,576.956,572.151,0.0
55391.0,STARLINK-5077,PAYLOAD,2023-08-25 11:51:36,14.97523331,0.0003477,69.9978,240.9227,269.9888,90.0872,-9.1503e-06,-1.99e-06,0.0,0 STARLINK-5077,1 55391U 23014A   23237.49417398 -.00000199  00000-0 -91503-5 0  9999,2 55391  69.9978 240.9227 0003477 269.9888  90.0872 14.97523331 33202,6952.689,96.159,576.971,572.136,0.0
55391.0,STARLINK-5077,PAYLOAD,2023-08-26 10:18:12,14.97523972,0.0003515,69.9979,238.5677,270.665,89.4106,5.1303e-05,5.07e-06,0.0,0 STARLINK-5077,1 55391U 23014A   23238.42931529  .00000507  00000-0  51303-4 0  9994,2 55391  69.9979 238.5677 0003515 270.6650  89.4106 14.97523972 32408,6952.687,96.159,576.995,572.108,0.0
55391.0,STARLINK-5077,PAYLOAD,2023-08-26 11:54:23,14.97524448,0.0003556,69.9978,238.3992,272.2331,87.842,5.3821e-05,5.37e-06,0.0,0 STARLINK-5077,1 55391U 23014A   23238.49611088  .00000537  00000-0  53821-4 0  9996,2 55391  69.9978 238.3992 0003556 272.2331  87.8420 14.97524448 33359,6952.685,96.159,577.022,572.078,0.0
55391.0,STARLINK-5077,PAYLOAD,2023-08-27 08:44:49,14.97523585,0.0003454,69.9982,236.2129,273.5715,86.5049,2.8481e-05,2.4e-06,0.0,0 STARLINK-5077,1 55391U 23014A   23239.36445952  .00000240  00000-0  28481-4 0  9993,2 55391  69.9982 236.2129 0003454 273.5715  86.5049 14.97523585 33488,6952.688,96.159,576.954,572.151,0.0
55391.0,STARLINK-5077,PAYLOAD,2023-08-27 10:21:00,14.97523673,0.0003456,69.9982,236.0444,273.634,86.4424,2.9759e-05,2.55e-06,0.0,0 STARLINK-5077,1 55391U 23014A   23239.43125530  .00000255  00000-0  29759-4 0  9993,2 55391  69.9982 236.0444 0003456 273.6340  86.4424 14.97523673 32554,6952.688,96.159,576.955,572.15,0.0
55391.0,STARLINK-5077,PAYLOAD,2023-08-28 16:48:32,14.97522697,0.0003463,69.9983,232.8484,271.8939,88.1823,-1.337e-05,-2.49e-06,0.0,0 STARLINK-5077,1 55391U 23014A   23240.70038006 -.00000249  00000-0 -13370-4 0  9993,2 55391  69.9983 232.8484 0003463 271.8939  88.1823 14.97522697 32743,6952.691,96.159,576.963,572.148,0.0
55391.0,STARLINK-5077,PAYLOAD,2023-08-29 08:50:24,14.97524112,0.0003443,69.9983,231.1662,270.9291,89.1473,2.2507e-05,1.71e-06,0.0,0 STARLINK-5077,1 55391U 23014A   23241.36833752  .00000171  00000-0  22507-4 0  9991,2 55391  69.9983 231.1662 0003443 270.9291  89.1473 14.97524112 33783,6952.686,96.159,576.945,572.157,0.0
55391.0,STARLINK-5077,PAYLOAD,2023-08-30 00:52:16,14.9751459,0.0003417,69.9985,229.484,270.3109,89.7658,-4.2161e-05,-5.85e-06,0.0,0 STARLINK-5077,1 55391U 23014A   23242.03630563 -.00000585  00000-0 -42161-4 0  9990,2 55391  69.9985 229.4840 0003417 270.3109  89.7658 14.97514590 32943,6952.716,96.159,576.956,572.205,0.0
55391.0,STARLINK-5077,PAYLOAD,2023-08-30 07:17:02,14.97505274,0.0003504,69.9985,228.8113,270.6919,89.3839,-0.00014311,-1.764e-05,0.0,0 STARLINK-5077,1 55391U 23014A   23242.30350000 -.00001764  00000-0 -14311-3 0  9990,2 55391  69.9985 228.8113 0003504 270.6919  89.3839 14.97505274 32988,6952.744,96.16,577.046,572.173,0.0
55391.0,STARLINK-5077,PAYLOAD,2023-08-30 16:54:09,14.97511588,0.0003496,69.9981,227.8022,267.8548,92.221,-0.00013199,-1.634e-05,0.0,0 STARLINK-5077,1 55391U 23014A   23242.70427469 -.00001634  00000-0 -13199-3 0  9997,2 55391  69.9981 227.8022 0003496 267.8548  92.2210 14.97511588 33980,6952.725,96.16,577.021,572.159,0.0
55391.0,STARLINK-5077,PAYLOAD,2023-08-31 21:45:30,14.97505162,0.0004108,69.9998,224.7791,276.147,83.9221,0.00016638,1.852e-05,0.0,0 STARLINK-5077,1 55391U 23014A   23243.90660369  .00001852  00000-0  16638-3 0  9999,2 55391  69.9998 224.7791 0004108 276.1470  83.9221 14.97505162 34166,6952.745,96.16,577.466,571.754,0.0
55391.0,STARLINK-5077,PAYLOAD,2023-09-01 05:46:31,14.97445011,0.0004588,70.0,223.9383,268.4883,91.575,-0.00040531,-4.817e-05,0.0,0 STARLINK-5077,1 55391U 23014A   23244.24063718 -.00004817  00000-0 -40531-3 0  9997,2 55391  70.0000 223.9383 0004588 268.4883  91.5750 14.97445011 33274,6952.931,96.164,577.986,571.606,0.0
55391.0,STARLINK-5077,PAYLOAD,2023-09-01 15:23:33,14.97519892,0.0002888,69.999,222.9286,262.2395,97.8436,-0.00015903,-1.95e-05,0.0,0 STARLINK-5077,1 55391U 23014A   23244.64136497 -.00001950  00000-0 -15903-3 0  9996,2 55391  69.9990 222.9286 0002888 262.2395  97.8436 14.97519892 33337,6952.699,96.159,576.572,572.556,0.0
55391.0,STARLINK-5077,PAYLOAD,2023-09-01 21:48:17,14.97529907,0.0003409,69.9988,222.2496,274.3323,85.7446,2.4711e-05,1.96e-06,0.0,0 STARLINK-5077,1 55391U 23014A   23244.90853842  .00000196  00000-0  24711-4 0  9992,2 55391  69.9988 222.2496 0003409 274.3323  85.7446 14.97529907 33374,6952.668,96.158,576.903,572.163,0.0
55391.0,STARLINK-5077,PAYLOAD,2023-09-02 15:26:19,14.97535542,0.0003386,69.9986,220.4003,270.5673,89.5098,9.7043e-05,1.042e-05,0.0,0 STARLINK-5077,1 55391U 23014A   23245.64328258  .00001042  00000-0  97043-4 0  9991,2 55391  69.9986 220.4003 0003386 270.5673  89.5098 14.97535542 33485,6952.651,96.158,576.87,572.162,0.0
55391.0,STARLINK-5077,PAYLOAD,2023-09-02 21:51:04,14.97531865,0.0003407,69.9991,219.7287,266.986,93.0909,6.7281e-05,6.94e-06,0.0,0 STARLINK-5077,1 55391U 23014A   23245.91046725  .00000694  00000-0  67281-4 0  9990,2 55391  69.9991 219.7287 0003407 266.9860  93.0909 14.97531865 34461,6952.662,96.158,576.896,572.158,0.0
55391.0,STARLINK-5077,PAYLOAD,2023-09-03 09:04:22,14.97535611,0.0003319,69.9991,218.5512,266.9217,93.1562,9.8765e-05,1.062e-05,0.0,0 STARLINK-5077,1 55391U 23014A   23246.37803272  .00001062  00000-0  98765-4 0  9990,2 55391  69.9991 218.5512 0003319 266.9217  93.1562 14.97535611 34534,6952.651,96.158,576.823,572.208,0.0
55391.0,STARLINK-5077,PAYLOAD,2023-09-03 15:29:07,14.97529031,0.0003394,69.9996,217.8789,268.975,91.102,-9.8466e-06,-2.07e-06,0.0,0 STARLINK-5077,1 55391U 23014A   23246.64522196 -.00000207  00000-0 -98466-5 0  9994,2 55391  69.9996 217.8789 0003394 268.9750  91.1020 14.97529031 33630,6952.671,96.158,576.896,572.176,0.0
55391.0,STARLINK-5077,PAYLOAD,2023-09-04 04:18:37,14.97522623,0.0003088,69.999,216.5333,268.9514,91.129,-0.00014147,-1.745e-05,0.0,0 STARLINK-5077,1 55391U 23014A   23247.17959690 -.00001745  00000-0 -14147-3 0  9996,2 55391  69.9990 216.5333 0003088 268.9514  91.1290 14.97522623 33711,6952.691,96.159,576.703,572.409,0.0
55391.0,STARLINK-5077,PAYLOAD,2023-09-04 05:54:48,14.97520733,0.0003218,69.9995,216.3651,268.3821,91.6969,-0.00015601,-1.915e-05,0.0,0 STARLINK-5077,1 55391U 23014A   23247.24639430 -.00001915  00000-0 -15601-3 0  9996,2 55391  69.9995 216.3651 0003218 268.3821  91.6969 14.97520733 34660,6952.697,96.159,576.799,572.324,0.0
55391.0,STARLINK-5077,PAYLOAD,2023-09-05 09:09:57,14.97527619,0.0003305,69.9995,213.5051,268.4335,91.6445,-3.8015e-05,-5.37e-06,0.0,0 STARLINK-5077,1 55391U 23014A   23248.38191721 -.00000537  00000-0 -38015-4 0  9992,2 55391  69.9995 213.5051 0003305 268.4335  91.6445 14.97527619 33894,6952.675,96.158,576.838,572.242,0.0
55391.0,STARLINK-5077,PAYLOAD,2023-09-06 09:12:44,14.97527979,0.0003321,69.9995,210.9818,269.3225,90.7553,0.00016539,1.841e-05,0.0,0 STARLINK-5077,1 55391U 23014A   23249.38384996  .00001841  00000-0  16539-3 0  9994,2 55391  69.9995 210.9818 0003321 269.3225  90.7553 14.97527979 34049,6952.674,96.158,576.848,572.23,0.0
